CCSDS_OMM_VERS = 2.0
CREATION_DATE  = 
ORIGINATOR     = 

OBJECT_NAME    = ARIANE 5 R/B
OBJECT_ID      = 2004-049H
CENTER_NAME    = EARTH
REF_FRAME      = TEME
TIME_SYSTEM    = UTC
MEAN_ELEMENT_THEORY = SGP/SGP4

EPOCH          = 2025-10-30T07:48:28.777248
MEAN_MOTION    = 14.84880484
ECCENTRICITY   = .00857834
INCLINATION    = 98.2507
RA_OF_ASC_NODE = 102.0611
ARG_OF_PERICENTER = 54.0748
MEAN_ANOMALY   = 306.8387

EPHEMERIS_TYPE = 0
CLASSIFICATION_TYPE = U
NORAD_CAT_ID   = 28499
ELEMENT_SET_NO = 999
REV_AT_EPOCH   = 12644
BSTAR          = .14341055E-3
MEAN_MOTION_DOT = .1238E-4
MEAN_MOTION_DDOT = 0

CCSDS_OMM_VERS = 2.0
CREATION_DATE  = 
ORIGINATOR     = 

OBJECT_NAME    = CZ-2D R/B
OBJECT_ID      = 2005-024B
CENTER_NAME    = EARTH
REF_FRAME      = TEME
TIME_SYSTEM    = UTC
MEAN_ELEMENT_THEORY = SGP/SGP4

EPOCH          = 2025-10-29T23:59:24.371232
MEAN_MOTION    = 15.50278302
ECCENTRICITY   = .00076507
INCLINATION    = 97.3685
RA_OF_ASC_NODE = 309.3860
ARG_OF_PERICENTER = 126.5360
MEAN_ANOMALY   = 233.6597

EPHEMERIS_TYPE = 0
CLASSIFICATION_TYPE = U
NORAD_CAT_ID   = 28738
ELEMENT_SET_NO = 999
REV_AT_EPOCH   = 11947
BSTAR          = .61307148E-3
MEAN_MOTION_DOT = .34741E-3
MEAN_MOTION_DDOT = 0

CCSDS_OMM_VERS = 2.0
CREATION_DATE  = 
ORIGINATOR     = 

OBJECT_NAME    = ALOS (DAICHI)
OBJECT_ID      = 2006-002A
CENTER_NAME    = EARTH
REF_FRAME      = TEME
TIME_SYSTEM    = UTC
MEAN_ELEMENT_THEORY = SGP/SGP4

EPOCH          = 2025-10-30T07:37:42.627936
MEAN_MOTION    = 14.69268535
ECCENTRICITY   = .000169
INCLINATION    = 98.1018
RA_OF_ASC_NODE = 255.1347
ARG_OF_PERICENTER = 54.3887
MEAN_ANOMALY   = 305.7476

EPHEMERIS_TYPE = 0
CLASSIFICATION_TYPE = U
NORAD_CAT_ID   = 28931
ELEMENT_SET_NO = 999
REV_AT_EPOCH   = 5433
BSTAR          = .44153289E-3
MEAN_MOTION_DOT = .2555E-4
MEAN_MOTION_DDOT = 0

CCSDS_OMM_VERS = 2.0
CREATION_DATE  = 
ORIGINATOR     = 

OBJECT_NAME    = H-2A R/B
OBJECT_ID      = 2006-002B
CENTER_NAME    = EARTH
REF_FRAME      = TEME
TIME_SYSTEM    = UTC
MEAN_ELEMENT_THEORY = SGP/SGP4

EPOCH          = 2025-10-30T07:06:13.330368
MEAN_MOTION    = 15.13405351
ECCENTRICITY   = .00551291
INCLINATION    = 98.2287
RA_OF_ASC_NODE = 74.5483
ARG_OF_PERICENTER = 325.2146
MEAN_ANOMALY   = 34.5483

EPHEMERIS_TYPE = 0
CLASSIFICATION_TYPE = U
NORAD_CAT_ID   = 28932
ELEMENT_SET_NO = 999
REV_AT_EPOCH   = 7469
BSTAR          = .62539266E-3
MEAN_MOTION_DOT = .11522E-3
MEAN_MOTION_DDOT = 0

CCSDS_OMM_VERS = 2.0
CREATION_DATE  = 
ORIGINATOR     = 

OBJECT_NAME    = RESURS-DK 1
OBJECT_ID      = 2006-021A
CENTER_NAME    = EARTH
REF_FRAME      = TEME
TIME_SYSTEM    = UTC
MEAN_ELEMENT_THEORY = SGP/SGP4

EPOCH          = 2025-10-30T03:59:50.369280
MEAN_MOTION    = 15.11803742
ECCENTRICITY   = .00070958
INCLINATION    = 69.9333
RA_OF_ASC_NODE = 214.4108
ARG_OF_PERICENTER = 294.8507
MEAN_ANOMALY   = 65.1920

EPHEMERIS_TYPE = 0
CLASSIFICATION_TYPE = U
NORAD_CAT_ID   = 29228
ELEMENT_SET_NO = 999
REV_AT_EPOCH   = 6779
BSTAR          = .25155132E-3
MEAN_MOTION_DOT = .4202E-4
MEAN_MOTION_DDOT = 0

CCSDS_OMM_VERS = 2.0
CREATION_DATE  = 
ORIGINATOR     = 

OBJECT_NAME    = CZ-4B R/B
OBJECT_ID      = 2006-046C
CENTER_NAME    = EARTH
REF_FRAME      = TEME
TIME_SYSTEM    = UTC
MEAN_ELEMENT_THEORY = SGP/SGP4

EPOCH          = 2025-10-30T03:02:55.285728
MEAN_MOTION    = 15.15232839
ECCENTRICITY   = .00344687
INCLINATION    = 97.5808
RA_OF_ASC_NODE = 343.3864
ARG_OF_PERICENTER = 2.4006
MEAN_ANOMALY   = 357.7385

EPHEMERIS_TYPE = 0
CLASSIFICATION_TYPE = U
NORAD_CAT_ID   = 29507
ELEMENT_SET_NO = 999
REV_AT_EPOCH   = 4026
BSTAR          = .38310132E-3
MEAN_MOTION_DOT = .724E-4
MEAN_MOTION_DDOT = 0

CCSDS_OMM_VERS = 2.0
CREATION_DATE  = 
ORIGINATOR     = 

OBJECT_NAME    = CZ-2C R/B
OBJECT_ID      = 2007-010B
CENTER_NAME    = EARTH
REF_FRAME      = TEME
TIME_SYSTEM    = UTC
MEAN_ELEMENT_THEORY = SGP/SGP4

EPOCH          = 2025-10-30T07:40:19.114752
MEAN_MOTION    = 14.20183819
ECCENTRICITY   = .00581458
INCLINATION    = 98.3948
RA_OF_ASC_NODE = 58.1624
ARG_OF_PERICENTER = 314.0551
MEAN_ANOMALY   = 45.5846

EPHEMERIS_TYPE = 0
CLASSIFICATION_TYPE = U
NORAD_CAT_ID   = 31114
ELEMENT_SET_NO = 999
REV_AT_EPOCH   = 96121
BSTAR          = .11218526E-3
MEAN_MOTION_DOT = .202E-5
MEAN_MOTION_DDOT = 0

CCSDS_OMM_VERS = 2.0
CREATION_DATE  = 
ORIGINATOR     = 

OBJECT_NAME    = COSMO-SKYMED 1
OBJECT_ID      = 2007-023A
CENTER_NAME    = EARTH
REF_FRAME      = TEME
TIME_SYSTEM    = UTC
MEAN_ELEMENT_THEORY = SGP/SGP4

EPOCH          = 2025-10-30T07:09:44.162784
MEAN_MOTION    = 14.95296156
ECCENTRICITY   = .00011113
INCLINATION    = 97.8868
RA_OF_ASC_NODE = 128.4245
ARG_OF_PERICENTER = 79.7738
MEAN_ANOMALY   = 280.3608

EPHEMERIS_TYPE = 0
CLASSIFICATION_TYPE = U
NORAD_CAT_ID   = 31598
ELEMENT_SET_NO = 999
REV_AT_EPOCH   = 99540
BSTAR          = .28286637E-3
MEAN_MOTION_DOT = .3057E-4
MEAN_MOTION_DDOT = 0

CCSDS_OMM_VERS = 2.0
CREATION_DATE  = 
ORIGINATOR     = 

OBJECT_NAME    = COSMOS 2428
OBJECT_ID      = 2007-029A
CENTER_NAME    = EARTH
REF_FRAME      = TEME
TIME_SYSTEM    = UTC
MEAN_ELEMENT_THEORY = SGP/SGP4

EPOCH          = 2025-10-30T04:44:37.071456
MEAN_MOTION    = 14.12893296
ECCENTRICITY   = .00017518
INCLINATION    = 70.9364
RA_OF_ASC_NODE = 117.2928
ARG_OF_PERICENTER = 115.8972
MEAN_ANOMALY   = 244.2330

EPHEMERIS_TYPE = 0
CLASSIFICATION_TYPE = U
NORAD_CAT_ID   = 31792
ELEMENT_SET_NO = 999
REV_AT_EPOCH   = 94566
BSTAR          = -.89540147E-4
MEAN_MOTION_DOT = -.215E-5
MEAN_MOTION_DDOT = 0

CCSDS_OMM_VERS = 2.0
CREATION_DATE  = 
ORIGINATOR     = 

OBJECT_NAME    = SL-16 R/B
OBJECT_ID      = 2007-029B
CENTER_NAME    = EARTH
REF_FRAME      = TEME
TIME_SYSTEM    = UTC
MEAN_ELEMENT_THEORY = SGP/SGP4

EPOCH          = 2025-10-30T03:24:01.430208
MEAN_MOTION    = 14.14803664
ECCENTRICITY   = .0002479
INCLINATION    = 70.9738
RA_OF_ASC_NODE = 86.7993
ARG_OF_PERICENTER = 261.6334
MEAN_ANOMALY   = 271.1447

EPHEMERIS_TYPE = 0
CLASSIFICATION_TYPE = U
NORAD_CAT_ID   = 31793
ELEMENT_SET_NO = 999
REV_AT_EPOCH   = 94690
BSTAR          = -.14613083E-4
MEAN_MOTION_DOT = -.76E-6
MEAN_MOTION_DDOT = 0

CCSDS_OMM_VERS = 2.0
CREATION_DATE  = 
ORIGINATOR     = 

OBJECT_NAME    = KORONAS-FOTON
OBJECT_ID      = 2009-003A
CENTER_NAME    = EARTH
REF_FRAME      = TEME
TIME_SYSTEM    = UTC
MEAN_ELEMENT_THEORY = SGP/SGP4

EPOCH          = 2025-10-30T07:09:53.697024
MEAN_MOTION    = 15.39763766
ECCENTRICITY   = .00106384
INCLINATION    = 82.4323
RA_OF_ASC_NODE = 51.0596
ARG_OF_PERICENTER = 264.8322
MEAN_ANOMALY   = 95.1710

EPHEMERIS_TYPE = 0
CLASSIFICATION_TYPE = U
NORAD_CAT_ID   = 33504
ELEMENT_SET_NO = 999
REV_AT_EPOCH   = 92565
BSTAR          = .48045315E-3
MEAN_MOTION_DOT = .19107E-3
MEAN_MOTION_DDOT = 0

CCSDS_OMM_VERS = 2.0
CREATION_DATE  = 
ORIGINATOR     = 

OBJECT_NAME    = CZ-2C R/B
OBJECT_ID      = 2011-030B
CENTER_NAME    = EARTH
REF_FRAME      = TEME
TIME_SYSTEM    = UTC
MEAN_ELEMENT_THEORY = SGP/SGP4

EPOCH          = 2025-10-30T07:02:01.269600
MEAN_MOTION    = 14.80666053
ECCENTRICITY   = .00545359
INCLINATION    = 97.8339
RA_OF_ASC_NODE = 258.3866
ARG_OF_PERICENTER = 55.6621
MEAN_ANOMALY   = 77.9744

EPHEMERIS_TYPE = 0
CLASSIFICATION_TYPE = U
NORAD_CAT_ID   = 37731
ELEMENT_SET_NO = 999
REV_AT_EPOCH   = 77079
BSTAR          = .30858131E-3
MEAN_MOTION_DOT = .2379E-4
MEAN_MOTION_DDOT = 0

