ARIANE 5 R/B            
1 28499U 04049H   25303.32533307  .00001238  00000+0  14341-3 0  9997
2 28499  98.2507 102.0611 0085783  54.0748 306.8387 14.84880484126446
CZ-2D R/B               
1 28738U 05024B   25302.99958763  .00034741  00000+0  61307-3 0  9995
2 28738  97.3685 309.3860 0007650 126.5360 233.6597 15.50278302119478
ALOS (DAICHI)           
1 28931U 06002A   25303.31785449  .00002555  00000+0  44153-3 0  9991
2 28931  98.1018 255.1347 0001690  54.3887 305.7476 14.69268535 54336
H-2A R/B                
1 28932U 06002B   25303.29598762  .00011522  00000+0  62539-3 0  9991
2 28932  98.2287  74.5483 0055129 325.2146  34.5483 15.13405351 74699
RESURS-DK 1             
1 29228U 06021A   25303.16655520  .00004202  00000+0  25155-3 0  9993
2 29228  69.9333 214.4108 0007095 294.8507  65.1920 15.11803742 67798
CZ-4B R/B               
1 29507U 06046C   25303.12702877  .00007240  00000+0  38310-3 0  9996
2 29507  97.5808 343.3864 0034468   2.4006 357.7385 15.15232839 40269
CZ-2C R/B               
1 31114U 07010B   25303.31966568  .00000202  00000+0  11219-3 0  9995
2 31114  98.3948  58.1624 0058145 314.0551  45.5846 14.20183819961219
COSMO-SKYMED 1          
1 31598U 07023A   25303.29842781  .00003057  00000+0  28287-3 0  9996
2 31598  97.8868 128.4245 0001111  79.7738 280.3608 14.95296156995407
COSMOS 2428             
1 31792U 07029A   25303.19765129 -.00000215  00000+0 -89540-4 0  9992
2 31792  70.9364 117.2928 0001751 115.8972 244.2330 14.12893296945663
SL-16 R/B               
1 31793U 07029B   25303.14168322 -.00000076  00000+0 -14613-4 0  9994
2 31793  70.9738  86.7993 0002479 261.6334 271.1447 14.14803664946909
KORONAS-FOTON           
1 33504U 09003A   25303.29853816  .00019107  00000+0  48045-3 0  9993
2 33504  82.4323  51.0596 0010638 264.8322  95.1710 15.39763766925653
CZ-2C R/B               
1 37731U 11030B   25303.29307025  .00002379  00000+0  30858-3 0  9994
2 37731  97.8339 258.3866 0054535  55.6621  77.9744 14.80666053770794
